[{"OBJECT_NAME":"KUIPER-00083","OBJECT_ID":"2025-151P","EPOCH":"2026-03-09T19:59:28.461120","MEAN_MOTION":14.79940147,"ECCENTRICITY":8.677e-5,"INCLINATION":51.9009,"RA_OF_ASC_NODE":294.9578,"ARG_OF_PERICENTER":102.892,"MEAN_ANOMALY":257.2139,"EPHEMERIS_TYPE":0,"CLASSIFICATION_TYPE":"U","NORAD_CAT_ID":64829,"ELEMENT_SET_NO":999,"REV_AT_EPOCH":3658,"BSTAR":0.00062657411,"MEAN_MOTION_DOT":4.559e-5,"MEAN_MOTION_DDOT":0},{"OBJECT_NAME":"DIAMANT R\/B","OBJECT_ID":"1967-014B","EPOCH":"2026-03-09T02:55:04.321920","MEAN_MOTION":13.32505224,"ECCENTRICITY":0.07458552,"INCLINATION":39.4593,"RA_OF_ASC_NODE":351.3401,"ARG_OF_PERICENTER":99.88,"MEAN_ANOMALY":268.6882,"EPHEMERIS_TYPE":0,"CLASSIFICATION_TYPE":"U","NORAD_CAT_ID":2682,"ELEMENT_SET_NO":999,"REV_AT_EPOCH":85053,"BSTAR":0.00040415206,"MEAN_MOTION_DOT":8.97e-6,"MEAN_MOTION_DDOT":0}]
